******** Week 162 almanac for PRN-01 ********
ID:                         01
Health:                     000
Eccentricity:               0.1190567017E-001
Time of Applicability(s):  147456.0000
Orbital Inclination(rad):   0.9879519375
Rate of Right Ascen(r/s):  -0.7600316584E-008
SQRT(A)  (m 1/2):           5153.628418
Right Ascen at Week(rad):   0.2745794152E+001
Argument of Perigee(rad):   0.905700682
Mean Anom(rad):             0.5225829877E+000
Af0(s):                     0.3614425659E-003
Af1(s/s):                  -0.7275957614E-011
week:                        162

******** Week 162 almanac for PRN-02 ********
ID:                         02
Health:                     000
Eccentricity:               0.2042341232E-001
Time of Applicability(s):  147456.0000
Orbital Inclination(rad):   0.9660447744
Rate of Right Ascen(r/s):  -0.7897471819E-008
SQRT(A)  (m 1/2):           5153.619629
Right Ascen at Week(rad):   0.2654673221E+001
Argument of Perigee(rad):  -1.419056565
Mean Anom(rad):             0.6781786737E+000
Af0(s):                    -0.6532669067E-003
Af1(s/s):                   0.0000000000E+000
week:                        162

******** Week 162 almanac for PRN-03 ********
ID:                         03
Health:                     000
Eccentricity:               0.4145145416E-002
Time of Applicability(s):  147456.0000
Orbital Inclination(rad):   0.9738045600
Rate of Right Ascen(r/s):  -0.7543171346E-008
SQRT(A)  (m 1/2):           5153.580078
Right Ascen at Week(rad):  -0.2503855121E+001
Argument of Perigee(rad):   0.953278803
Mean Anom(rad):            -0.5860750367E+000
Af0(s):                    -0.2460479736E-003
Af1(s/s):                  -0.1455191523E-010
week:                        162

******** Week 162 almanac for PRN-04 ********
ID:                         04
Health:                     000
Eccentricity:               0.1814842224E-002
Time of Applicability(s):  147456.0000
Orbital Inclination(rad):   0.9608556050
Rate of Right Ascen(r/s):  -0.7988904198E-008
SQRT(A)  (m 1/2):           5153.548828
Right Ascen at Week(rad):  -0.1422235381E+001
Argument of Perigee(rad):  -2.967428160
Mean Anom(rad):             0.2262911531E+001
Af0(s):                    -0.1668930054E-003
Af1(s/s):                   0.3637978807E-011
week:                        162

******** Week 162 almanac for PRN-05 ********
ID:                         05
Health:                     000
Eccentricity:               0.5962371826E-002
Time of Applicability(s):  147456.0000
Orbital Inclination(rad):   0.9608436207
Rate of Right Ascen(r/s):  -0.7680319916E-008
SQRT(A)  (m 1/2):           5153.672852
Right Ascen at Week(rad):  -0.2545450868E+001
Argument of Perigee(rad):   1.021223741
Mean Anom(rad):            -0.3103661833E+001
Af0(s):                    -0.8201599121E-004
Af1(s/s):                   0.0000000000E+000
week:                        162

******** Week 162 almanac for PRN-06 ********
ID:                         06
Health:                     000
Eccentricity:               0.2563953400E-002
Time of Applicability(s):  147456.0000
Orbital Inclination(rad):   0.9872868130
Rate of Right Ascen(r/s):  -0.7634603726E-008
SQRT(A)  (m 1/2):           5153.687012
Right Ascen at Week(rad):   0.2737519419E+001
Argument of Perigee(rad):  -0.857590011
Mean Anom(rad):             0.7546975752E+000
Af0(s):                     0.3061294556E-003
Af1(s/s):                   0.1455191523E-010
week:                        162

******** Week 162 almanac for PRN-07 ********
ID:                         07
Health:                     000
Eccentricity:               0.1608514786E-001
Time of Applicability(s):  147456.0000
Orbital Inclination(rad):   0.9510525090
Rate of Right Ascen(r/s):  -0.7748894201E-008
SQRT(A)  (m 1/2):           5153.612793
Right Ascen at Week(rad):  -0.4040170586E+000
Argument of Perigee(rad):  -2.268694294
Mean Anom(rad):            -0.1446297457E+000
Af0(s):                     0.3223419189E-003
Af1(s/s):                   0.0000000000E+000
week:                        162

******** Week 162 almanac for PRN-08 ********
ID:                         08
Health:                     000
Eccentricity:               0.7448196411E-002
Time of Applicability(s):  147456.0000
Orbital Inclination(rad):   0.9633962606
Rate of Right Ascen(r/s):  -0.8366062766E-008
SQRT(A)  (m 1/2):           5153.708008
Right Ascen at Week(rad):   0.1663741856E+001
Argument of Perigee(rad):   0.167684024
Mean Anom(rad):             0.2703635896E+001
Af0(s):                    -0.6866455078E-004
Af1(s/s):                   0.0000000000E+000
week:                        162

******** Week 162 almanac for PRN-09 ********
ID:                         09
Health:                     000
Eccentricity:               0.2085208893E-002
Time of Applicability(s):  147456.0000
Orbital Inclination(rad):   0.9538927703
Rate of Right Ascen(r/s):  -0.8068907531E-008
SQRT(A)  (m 1/2):           5153.497070
Right Ascen at Week(rad):  -0.1475950549E+001
Argument of Perigee(rad):   1.875778372
Mean Anom(rad):            -0.3056337252E+001
Af0(s):                    -0.3366470337E-003
Af1(s/s):                   0.3637978807E-011
week:                        162

******** Week 162 almanac for PRN-10 ********
ID:                         10
Health:                     000
Eccentricity:               0.7606506348E-002
Time of Applicability(s):  147456.0000
Orbital Inclination(rad):   0.9736128124
Rate of Right Ascen(r/s):  -0.7508884204E-008
SQRT(A)  (m 1/2):           5153.635742
Right Ascen at Week(rad):  -0.2506614489E+001
Argument of Perigee(rad):  -2.494480461
Mean Anom(rad):            -0.1507372438E+001
Af0(s):                    -0.4167556763E-003
Af1(s/s):                  -0.1455191523E-010
week:                        162

******** Week 162 almanac for PRN-11 ********
ID:                         11
Health:                     063
Eccentricity:               0.3657341003E-003
Time of Applicability(s):  147456.0000
Orbital Inclination(rad):   0.9631385998
Rate of Right Ascen(r/s):  -0.7828897534E-008
SQRT(A)  (m 1/2):           5153.533203
Right Ascen at Week(rad):   0.2787431843E+001
Argument of Perigee(rad):   2.819773521
Mean Anom(rad):             0.2693263174E+001
Af0(s):                    -0.2384185791E-004
Af1(s/s):                   0.3637978807E-011
week:                        162

******** Week 162 almanac for PRN-12 ********
ID:                         12
Health:                     000
Eccentricity:               0.8651256561E-002
Time of Applicability(s):  147456.0000
Orbital Inclination(rad):   0.9695561523
Rate of Right Ascen(r/s):  -0.7806039439E-008
SQRT(A)  (m 1/2):           5153.509277
Right Ascen at Week(rad):   0.7086729085E+000
Argument of Perigee(rad):   1.284905901
Mean Anom(rad):            -0.7450498997E+000
Af0(s):                    -0.2164840698E-003
Af1(s/s):                  -0.7275957614E-011
week:                        162

******** Week 162 almanac for PRN-13 ********
ID:                         13
Health:                     000
Eccentricity:               0.5912303925E-002
Time of Applicability(s):  147456.0000
Orbital Inclination(rad):   0.9682558638
Rate of Right Ascen(r/s):  -0.7920329914E-008
SQRT(A)  (m 1/2):           5153.609375
Right Ascen at Week(rad):  -0.1321576505E+001
Argument of Perigee(rad):   0.920830766
Mean Anom(rad):             0.2279898420E+001
Af0(s):                     0.3128051758E-003
Af1(s/s):                   0.7275957614E-011
week:                        162

******** Week 162 almanac for PRN-14 ********
ID:                         14
Health:                     000
Eccentricity:               0.1852035522E-002
Time of Applicability(s):  147456.0000
Orbital Inclination(rad):   0.9529759771
Rate of Right Ascen(r/s):  -0.7920329914E-008
SQRT(A)  (m 1/2):           5153.614258
Right Ascen at Week(rad):   0.6759529785E+000
Argument of Perigee(rad):   3.099920508
Mean Anom(rad):            -0.7727619218E+000
Af0(s):                    -0.1087188721E-003
Af1(s/s):                   0.0000000000E+000
week:                        162

******** Week 162 almanac for PRN-15 ********
ID:                         15
Health:                     000
Eccentricity:               0.1403951645E-001
Time of Applicability(s):  147456.0000
Orbital Inclination(rad):   0.9298224546
Rate of Right Ascen(r/s):  -0.8320346576E-008
SQRT(A)  (m 1/2):           5153.710938
Right Ascen at Week(rad):  -0.1584430630E+001
Argument of Perigee(rad):   1.092816003
Mean Anom(rad):             0.1748195812E+001
Af0(s):                    -0.6103515625E-004
Af1(s/s):                   0.3637978807E-011
week:                        162

******** Week 162 almanac for PRN-16 ********
ID:                         16
Health:                     000
Eccentricity:               0.1273679733E-001
Time of Applicability(s):  147456.0000
Orbital Inclination(rad):   0.9694363100
Rate of Right Ascen(r/s):  -0.7828897534E-008
SQRT(A)  (m 1/2):           5153.609375
Right Ascen at Week(rad):   0.7272346004E+000
Argument of Perigee(rad):   0.728077616
Mean Anom(rad):            -0.2615564201E+001
Af0(s):                    -0.5016326904E-003
Af1(s/s):                  -0.3637978807E-011
week:                        162

******** Week 162 almanac for PRN-17 ********
ID:                         17
Health:                     000
Eccentricity:               0.1350831985E-001
Time of Applicability(s):  147456.0000
Orbital Inclination(rad):   0.9786162263
Rate of Right Ascen(r/s):  -0.8194627053E-008
SQRT(A)  (m 1/2):           5153.500977
Right Ascen at Week(rad):   0.1747067797E+001
Argument of Perigee(rad):  -1.493204463
Mean Anom(rad):             0.2686868092E+001
Af0(s):                     0.6132125854E-003
Af1(s/s):                   0.3637978807E-011
week:                        162

